[
    {
        "Altitude(m)": 705270.040571754,
        "Argument of Periapsis(deg)": 0.0022780242373254137,
        "Eccentricity": 0.0,
        "Inclination(deg)": 45.0,
        "Latitude(deg)": -10.002419082643579,
        "Longitude(deg)": -5.233422474617079,
        "Mean Anomaly(deg)": -14.056956670503931,
        "RAAN(deg)": 104.99784961170835,
        "Satellite Name": "Constellation 1 483",
        "Satellite Number": 483,
        "Semi-Major Axis(m)": 7083131.272910544,
        "Time(s)": 38
    },
    {
        "Altitude(m)": 705260.0023454591,
        "Argument of Periapsis(deg)": 0.002337972243570819,
        "Eccentricity": 0.0,
        "Inclination(deg)": 45.0,
        "Latitude(deg)": -9.959901935566247,
        "Longitude(deg)": -5.193375058685104,
        "Mean Anomaly(deg)": -13.99625553025398,
        "RAAN(deg)": 104.9977930225428,
        "Satellite Name": "Constellation 1 483",
        "Satellite Number": 483,
        "Semi-Major Axis(m)": 7083131.272910544,
        "Time(s)": 39
    },
    {
        "Altitude(m)": 705249.9808469784,
        "Argument of Periapsis(deg)": 0.0023979202498162246,
        "Eccentricity": 0.0,
        "Inclination(deg)": 45.0,
        "Latitude(deg)": -9.917378759833273,
        "Longitude(deg)": -5.153338975463305,
        "Mean Anomaly(deg)": -13.935554390004068,
        "RAAN(deg)": 104.99773643337723,
        "Satellite Name": "Constellation 1 483",
        "Satellite Number": 483,
        "Semi-Major Axis(m)": 7083131.272910544,
        "Time(s)": 40
    },
    {
        "Altitude(m)": 705239.9761032462,
        "Argument of Periapsis(deg)": 0.00245786825606163,
        "Eccentricity": 0.0,
        "Inclination(deg)": 45.0,
        "Latitude(deg)": -9.8748495827753,
        "Longitude(deg)": -5.113314173958726,
        "Mean Anomaly(deg)": -13.874853249754143,
        "RAAN(deg)": 104.99767984421166,
        "Satellite Name": "Constellation 1 483",
        "Satellite Number": 483,
        "Semi-Major Axis(m)": 7083131.272910544,
        "Time(s)": 41
    },
    {
        "Altitude(m)": 705229.9881411238,
        "Argument of Periapsis(deg)": 0.002517816262307036,
        "Eccentricity": 0.0,
        "Inclination(deg)": 45.0,
        "Latitude(deg)": -9.832314431701729,
        "Longitude(deg)": -5.073300603201108,
        "Mean Anomaly(deg)": -13.814152109504283,
        "RAAN(deg)": 104.99762325504608,
        "Satellite Name": "Constellation 1 483",
        "Satellite Number": 483,
        "Semi-Major Axis(m)": 7083131.272910544,
        "Time(s)": 42
    },
    {
        "Altitude(m)": 705220.0169873926,
        "Argument of Periapsis(deg)": 0.0025777642685524413,
        "Eccentricity": 0.0,
        "Inclination(deg)": 45.0,
        "Latitude(deg)": -9.789773333900543,
        "Longitude(deg)": -5.033298212242616,
        "Mean Anomaly(deg)": -13.753450969254333,
        "RAAN(deg)": 104.99756666588053,
        "Satellite Name": "Constellation 1 483",
        "Satellite Number": 483,
        "Semi-Major Axis(m)": 7083131.272910544,
        "Time(s)": 43
    },
    {
        "Altitude(m)": 705210.0626687516,
        "Argument of Periapsis(deg)": 0.002637712274797847,
        "Eccentricity": 0.0,
        "Inclination(deg)": 45.0,
        "Latitude(deg)": -9.747226316639132,
        "Longitude(deg)": -4.993307118255157,
        "Mean Anomaly(deg)": -13.692749829004471,
        "RAAN(deg)": 104.99751007671495,
        "Satellite Name": "Constellation 1 483",
        "Satellite Number": 483,
        "Semi-Major Axis(m)": 7083131.272910544,
        "Time(s)": 44
    },
    {
        "Altitude(m)": 705200.125211821,
        "Argument of Periapsis(deg)": 0.0026976602810432526,
        "Eccentricity": 0.0,
        "Inclination(deg)": 45.0,
        "Latitude(deg)": -9.704673407162687,
        "Longitude(deg)": -4.953326934141597,
        "Mean Anomaly(deg)": -13.63204868875456,
        "RAAN(deg)": 104.99745348754938,
        "Satellite Name": "Constellation 1 483",
        "Satellite Number": 483,
        "Semi-Major Axis(m)": 7083131.272910544,
        "Time(s)": 45
    },
    {
        "Altitude(m)": 705190.2046431395,
        "Argument of Periapsis(deg)": 0.0027576082872886585,
        "Eccentricity": 0.0,
        "Inclination(deg)": 45.0,
        "Latitude(deg)": -9.662114632696554,
        "Longitude(deg)": -4.913357777118416,
        "Mean Anomaly(deg)": -13.571347548504699,
        "RAAN(deg)": 104.99739689838381,
        "Satellite Name": "Constellation 1 483",
        "Satellite Number": 483,
        "Semi-Major Axis(m)": 7083131.272910544,
        "Time(s)": 46
    },
    {
        "Altitude(m)": 705180.3009891637,
        "Argument of Periapsis(deg)": 0.0028175562935340644,
        "Eccentricity": 0.0,
        "Inclination(deg)": 45.0,
        "Latitude(deg)": -9.619550020444768,
        "Longitude(deg)": -4.873399596327103,
        "Mean Anomaly(deg)": -13.510646408254749,
        "RAAN(deg)": 104.99734030921826,
        "Satellite Name": "Constellation 1 483",
        "Satellite Number": 483,
        "Semi-Major Axis(m)": 7083131.272910544,
        "Time(s)": 47
    },
    {
        "Altitude(m)": 705170.4142762674,
        "Argument of Periapsis(deg)": 0.00287750429977947,
        "Eccentricity": 0.0,
        "Inclination(deg)": 45.0,
        "Latitude(deg)": -9.576979597590778,
        "Longitude(deg)": -4.833452340931465,
        "Mean Anomaly(deg)": -13.449945268004836,
        "RAAN(deg)": 104.99728372005268,
        "Satellite Name": "Constellation 1 483",
        "Satellite Number": 483,
        "Semi-Major Axis(m)": 7083131.272910544,
        "Time(s)": 48
    },
    {
        "Altitude(m)": 705160.5445307508,
        "Argument of Periapsis(deg)": 0.002937452306024875,
        "Eccentricity": 0.0,
        "Inclination(deg)": 45.0,
        "Latitude(deg)": -9.534403391297358,
        "Longitude(deg)": -4.79351596011721,
        "Mean Anomaly(deg)": -13.389244127755026,
        "RAAN(deg)": 104.99722713088711,
        "Satellite Name": "Constellation 1 483",
        "Satellite Number": 483,
        "Semi-Major Axis(m)": 7083131.272910544,
        "Time(s)": 49
    },
    {
        "Altitude(m)": 705150.6917788225,
        "Argument of Periapsis(deg)": 0.0029974003122702807,
        "Eccentricity": 0.0,
        "Inclination(deg)": 45.0,
        "Latitude(deg)": -9.491821428706562,
        "Longitude(deg)": -4.753590403091981,
        "Mean Anomaly(deg)": -13.328542987505102,
        "RAAN(deg)": 104.99717054172153,
        "Satellite Name": "Constellation 1 483",
        "Satellite Number": 483,
        "Semi-Major Axis(m)": 7083131.272910544,
        "Time(s)": 50
    },
    {
        "Altitude(m)": 705140.8560466178,
        "Argument of Periapsis(deg)": 0.0030573483185156866,
        "Eccentricity": 0.0,
        "Inclination(deg)": 45.0,
        "Latitude(deg)": -9.44923373694016,
        "Longitude(deg)": -4.713675619085321,
        "Mean Anomaly(deg)": -13.26784184725515,
        "RAAN(deg)": 104.99711395255596,
        "Satellite Name": "Constellation 1 483",
        "Satellite Number": 483,
        "Semi-Major Axis(m)": 7083131.272910544,
        "Time(s)": 51
    },
    {
        "Altitude(m)": 705131.0373601927,
        "Argument of Periapsis(deg)": 0.003117296324761092,
        "Eccentricity": 0.0,
        "Inclination(deg)": 45.0,
        "Latitude(deg)": -9.406640343099898,
        "Longitude(deg)": -4.673771725445705,
        "Mean Anomaly(deg)": -13.207140707005241,
        "RAAN(deg)": 104.99705736339041,
        "Satellite Name": "Constellation 1 483",
        "Satellite Number": 483,
        "Semi-Major Axis(m)": 7083131.272910544,
        "Time(s)": 52
    },
    {
        "Altitude(m)": 705121.2357455171,
        "Argument of Periapsis(deg)": 0.0031772443310064975,
        "Eccentricity": 0.0,
        "Inclination(deg)": 45.0,
        "Latitude(deg)": -9.364041274266356,
        "Longitude(deg)": -4.633878335252187,
        "Mean Anomaly(deg)": -13.146439566755431,
        "RAAN(deg)": 104.99700077422483,
        "Satellite Name": "Constellation 1 483",
        "Satellite Number": 483,
        "Semi-Major Axis(m)": 7083131.272910544,
        "Time(s)": 53
    },
    {
        "Altitude(m)": 705111.4512284689,
        "Argument of Periapsis(deg)": 0.0032371923372519038,
        "Eccentricity": 0.0,
        "Inclination(deg)": 45.0,
        "Latitude(deg)": -9.321436557500673,
        "Longitude(deg)": -4.593995565896362,
        "Mean Anomaly(deg)": -13.085738426505518,
        "RAAN(deg)": 104.99694418505926,
        "Satellite Name": "Constellation 1 483",
        "Satellite Number": 483,
        "Semi-Major Axis(m)": 7083131.272910544,
        "Time(s)": 54
    },
    {
        "Altitude(m)": 705101.683834862,
        "Argument of Periapsis(deg)": 0.0032971403434973088,
        "Eccentricity": 0.0,
        "Inclination(deg)": 45.0,
        "Latitude(deg)": -9.278826219843861,
        "Longitude(deg)": -4.55412336669446,
        "Mean Anomaly(deg)": -13.025037286255568,
        "RAAN(deg)": 104.99688759589368,
        "Satellite Name": "Constellation 1 483",
        "Satellite Number": 483,
        "Semi-Major Axis(m)": 7083131.272910544,
        "Time(s)": 55
    },
    {
        "Altitude(m)": 705091.9335904223,
        "Argument of Periapsis(deg)": 0.0033570883497427146,
        "Eccentricity": 0.0,
        "Inclination(deg)": 45.0,
        "Latitude(deg)": -9.236210288316975,
        "Longitude(deg)": -4.514261686984341,
        "Mean Anomaly(deg)": -12.964336146005706,
        "RAAN(deg)": 104.99683100672812,
        "Satellite Name": "Constellation 1 483",
        "Satellite Number": 483,
        "Semi-Major Axis(m)": 7083131.272910544,
        "Time(s)": 56
    }
]